{"type": "FeatureCollection", "features": [ {"type": "Feature", "properties": {"norad_id": 47052, "name": "COSMOS 2251 DEB", "group": "cosmos-2251-debris", "lat": 23.15864554779495, "lon": -40.35144873021122, "alt_km": 730.7196301079221, "timestamp": "2025-12-27T20:30:59.678462+00:00", "meta": {"OBJECT_NAME": "COSMOS 2251 DEB", "OBJECT_ID": "1993-036BXG", "EPOCH": "2025-12-26T15:07:30.448992", "MEAN_MOTION": 14.35506302, "ECCENTRICITY": 0.0058529, "INCLINATION": 74.0497, "RA_OF_ASC_NODE": 314.8656, "ARG_OF_PERICENTER": 25.3344, "MEAN_ANOMALY": 152.6932, "EPHEMERIS_TYPE": 0, "CLASSIFICATION_TYPE": "U", "NORAD_CAT_ID": 47052, "ELEMENT_SET_NO": 999, "REV_AT_EPOCH": 61988, "BSTAR": 0.0003685, "MEAN_MOTION_DOT": 1.055e-05, "MEAN_MOTION_DDOT": 0}, "tle": {"line1": "1 47052U 93036BXG 25360.63021353  .00001055  00000+0  36850-3 0  9993", "line2": "2 47052  74.0497 314.8656 0058529  25.3344 152.6932 14.35506302619883"}}, "geometry": {"type": "Point", "coordinates": [-40.35144873021122, 23.15864554779495]}}, {"type": "Feature", "properties": {"norad_id": 47053, "name": "COSMOS 2251 DEB", "group": "cosmos-2251-debris", "lat": -7.731758757806214, "lon": -132.62512215211552, "alt_km": 846.1707664557916, "timestamp": "2025-12-27T20:30:59.678472+00:00", "meta": {"OBJECT_NAME": "COSMOS 2251 DEB", "OBJECT_ID": "1993-036BXH", "EPOCH": "2025-12-21T23:22:14.227392", "MEAN_MOTION": 13.59701409, "ECCENTRICITY": 0.03775476, "INCLINATION": 74.0593, "RA_OF_ASC_NODE": 239.1144, "ARG_OF_PERICENTER": 50.5889, "MEAN_ANOMALY": 327.7768, "EPHEMERIS_TYPE": 0, "CLASSIFICATION_TYPE": "U", "NORAD_CAT_ID": 47053, "ELEMENT_SET_NO": 999, "REV_AT_EPOCH": 29014, "BSTAR": 0.0013674764, "MEAN_MOTION_DOT": 1.606e-05, "MEAN_MOTION_DDOT": 0}, "tle": {"line1": "1 47053U 93036BXH 25355.97377578  .00001606  00000+0  13675-2 0  9999", "line2": "2 47053  74.0593 239.1144 0377547  50.5889 327.7768 13.59701409290146"}}, "geometry": {"type": "Point", "coordinates": [-132.62512215211552, -7.731758757806214]}}, {"type": "Feature", "properties": {"norad_id": 47059, "name": "COSMOS 2251 DEB", "group": "cosmos-2251-debris", "lat": -66.61846658995101, "lon": 162.31231514400545, "alt_km": 530.6028782716376, "timestamp": "2025-12-27T20:30:59.678483+00:00", "meta": {"OBJECT_NAME": "COSMOS 2251 DEB", "OBJECT_ID": "1993-036BXP", "EPOCH": "2025-12-16T01:10:48.054720", "MEAN_MOTION": 15.13144812, "ECCENTRICITY": 0.00128667, "INCLINATION": 73.98, "RA_OF_ASC_NODE": 228.534, "ARG_OF_PERICENTER": 42.2566, "MEAN_ANOMALY": 26.5019, "EPHEMERIS_TYPE": 0, "CLASSIFICATION_TYPE": "U", "NORAD_CAT_ID": 47059, "ELEMENT_SET_NO": 999, "REV_AT_EPOCH": 8355, "BSTAR": 0.0018804977, "MEAN_MOTION_DOT": 0.00033522, "MEAN_MOTION_DDOT": 0}, "tle": {"line1": "1 47059U 93036BXP 25350.04916730  .00033522  00000+0  18805-2 0  9999", "line2": "2 47059  73.9800 228.5340 0012866  42.2566  26.5019 15.13144812 83550"}}, "geometry": {"type": "Point", "coordinates": [162.31231514400545, -66.61846658995101]}}, {"type": "Feature", "properties": {"norad_id": 47062, "name": "COSMOS 2251 DEB", "group": "cosmos-2251-debris", "lat": -15.747766230518565, "lon": -122.13653925837518, "alt_km": 773.2305402663205, "timestamp": "2025-12-27T20:30:59.678493+00:00", "meta": {"OBJECT_NAME": "COSMOS 2251 DEB", "OBJECT_ID": "1993-036BXS", "EPOCH": "2025-12-26T21:40:26.334912", "MEAN_MOTION": 13.7198095, "ECCENTRICITY": 0.0322168, "INCLINATION": 74.0838, "RA_OF_ASC_NODE": 54.8174, "ARG_OF_PERICENTER": 177.7284, "MEAN_ANOMALY": 358.1431, "EPHEMERIS_TYPE": 0, "CLASSIFICATION_TYPE": "U", "NORAD_CAT_ID": 47062, "ELEMENT_SET_NO": 999, "REV_AT_EPOCH": 55796, "BSTAR": 0.00088776, "MEAN_MOTION_DOT": 1.146e-05, "MEAN_MOTION_DDOT": 0}, "tle": {"line1": "1 47062U 93036BXS 25360.90308258  .00001146  00000+0  88776-3 0  9991", "line2": "2 47062  74.0838  54.8174 0322168 177.7284 358.1431 13.71980950557968"}}, "geometry": {"type": "Point", "coordinates": [-122.13653925837518, -15.747766230518565]}}, {"type": "Feature", "properties": {"norad_id": 47068, "name": "COSMOS 2251 DEB", "group": "cosmos-2251-debris", "lat": 47.77084238630823, "lon": -166.6786818628442, "alt_km": 721.6821956461199, "timestamp": "2025-12-27T20:30:59.678503+00:00", "meta": {"OBJECT_NAME": "COSMOS 2251 DEB", "OBJECT_ID": "1993-036BXY", "EPOCH": "2025-12-23T18:48:26.675712", "MEAN_MOTION": 14.5321924, "ECCENTRICITY": 0.00182523, "INCLINATION": 74.0229, "RA_OF_ASC_NODE": 182.6094, "ARG_OF_PERICENTER": 268.9678, "MEAN_ANOMALY": 90.9393, "EPHEMERIS_TYPE": 0, "CLASSIFICATION_TYPE": "U", "NORAD_CAT_ID": 47068, "ELEMENT_SET_NO": 999, "REV_AT_EPOCH": 61917, "BSTAR": 0.00081306022, "MEAN_MOTION_DOT": 3.351e-05, "MEAN_MOTION_DDOT": 0}, "tle": {"line1": "1 47068U 93036BXY 25357.78364208  .00003351  00000+0  81306-3 0  9998", "line2": "2 47068  74.0229 182.6094 0018252 268.9678  90.9393 14.53219240619173"}}, "geometry": {"type": "Point", "coordinates": [-166.6786818628442, 47.77084238630823]}}, {"type": "Feature", "properties": {"norad_id": 47073, "name": "COSMOS 2251 DEB", "group": "cosmos-2251-debris", "lat": 72.20284925479478, "lon": -67.2068795922364, "alt_km": 912.694560906305, "timestamp": "2025-12-27T20:30:59.678513+00:00", "meta": {"OBJECT_NAME": "COSMOS 2251 DEB", "OBJECT_ID": "1993-036BYD", "EPOCH": "2025-12-20T05:09:22.277088", "MEAN_MOTION": 14.04735867, "ECCENTRICITY": 0.0161533, "INCLINATION": 74.0811, "RA_OF_ASC_NODE": 188.8357, "ARG_OF_PERICENTER": 225.3344, "MEAN_ANOMALY": 133.4535, "EPHEMERIS_TYPE": 0, "CLASSIFICATION_TYPE": "U", "NORAD_CAT_ID": 47073, "ELEMENT_SET_NO": 999, "REV_AT_EPOCH": 60466, "BSTAR": 0.00045488, "MEAN_MOTION_DOT": 7.94e-06, "MEAN_MOTION_DDOT": 0}, "tle": {"line1": "1 47073U 93036BYD 25354.21484117  .00000794  00000+0  45488-3 0  9990", "line2": "2 47073  74.0811 188.8357 0161533 225.3344 133.4535 14.04735867604667"}}, "geometry": {"type": "Point", "coordinates": [-67.2068795922364, 72.20284925479478]}}, {"type": "Feature", "properties": {"norad_id": 47074, "name": "COSMOS 2251 DEB", "group": "cosmos-2251-debris", "lat": 43.958311614775056, "lon": 85.10448792030208, "alt_km": 871.101113935425, "timestamp": "2025-12-27T20:30:59.678546+00:00", "meta": {"OBJECT_NAME": "COSMOS 2251 DEB", "OBJECT_ID": "1993-036BYE", "EPOCH": "2025-12-24T01:39:06.472224", "MEAN_MOTION": 14.35696552, "ECCENTRICITY": 0.01448361, "INCLINATION": 74.0936, "RA_OF_ASC_NODE": 287.9879, "ARG_OF_PERICENTER": 313.5556, "MEAN_ANOMALY": 59.972, "EPHEMERIS_TYPE": 0, "CLASSIFICATION_TYPE": "U", "NORAD_CAT_ID": 47074, "ELEMENT_SET_NO": 999, "REV_AT_EPOCH": 2845, "BSTAR": 0.0011703787, "MEAN_MOTION_DOT": 3.781e-05, "MEAN_MOTION_DDOT": 0}, "tle": {"line1": "1 47074U 93036BYE 25358.06882491  .00003781  00000+0  11704-2 0  9997", "line2": "2 47074  74.0936 287.9879 0144836 313.5556  59.9720 14.35696552 28454"}}, "geometry": {"type": "Point", "coordinates": [85.10448792030208, 43.958311614775056]}}, {"type": "Feature", "properties": {"norad_id": 47116, "name": "COSMOS 2251 DEB", "group": "cosmos-2251-debris", "lat": 20.47750390629816, "lon": 23.90569453051425, "alt_km": 581.832279767088, "timestamp": "2025-12-27T20:30:59.678557+00:00", "meta": {"OBJECT_NAME": "COSMOS 2251 DEB", "OBJECT_ID": "1993-036BYJ", "EPOCH": "2025-12-22T09:13:54.172992", "MEAN_MOTION": 14.98590739, "ECCENTRICITY": 0.00212329, "INCLINATION": 74.0216, "RA_OF_ASC_NODE": 221.1484, "ARG_OF_PERICENTER": 314.2258, "MEAN_ANOMALY": 222.9412, "EPHEMERIS_TYPE": 0, "CLASSIFICATION_TYPE": "U", "NORAD_CAT_ID": 47116, "ELEMENT_SET_NO": 999, "REV_AT_EPOCH": 59655, "BSTAR": 0.0021038728, "MEAN_MOTION_DOT": 0.000254, "MEAN_MOTION_DDOT": 0}, "tle": {"line1": "1 47116U 93036BYJ 25356.38465478  .00025400  00000+0  21039-2 0  9993", "line2": "2 47116  74.0216 221.1484 0021232 314.2258 222.9412 14.98590739596555"}}, "geometry": {"type": "Point", "coordinates": [23.90569453051425, 20.47750390629816]}}, {"type": "Feature", "properties": {"norad_id": 53093, "name": "COSMOS 2251 DEB", "group": "cosmos-2251-debris", "lat": 32.63608157819903, "lon": 82.87588289721248, "alt_km": 762.8627061764182, "timestamp": "2025-12-27T20:30:59.678567+00:00", "meta": {"OBJECT_NAME": "COSMOS 2251 DEB", "OBJECT_ID": "1993-036BYP", "EPOCH": "2025-12-27T11:31:03.621792", "MEAN_MOTION": 14.4196228, "ECCENTRICITY": 0.0020003, "INCLINATION": 74.036, "RA_OF_ASC_NODE": 274.1338, "ARG_OF_PERICENTER": 349.2214, "MEAN_ANOMALY": 10.851, "EPHEMERIS_TYPE": 0, "CLASSIFICATION_TYPE": "U", "NORAD_CAT_ID": 53093, "ELEMENT_SET_NO": 999, "REV_AT_EPOCH": 17938, "BSTAR": 0.0009563, "MEAN_MOTION_DOT": 3.117e-05, "MEAN_MOTION_DDOT": 0}, "tle": {"line1": "1 53093U 93036BYP 25361.47990303  .00003117  00000+0  95630-3 0  9990", "line2": "2 53093  74.0360 274.1338 0020003 349.2214  10.8510 14.41962280179380"}}, "geometry": {"type": "Point", "coordinates": [82.87588289721248, 32.63608157819903]}}]}